{
    "links": {
        "self": "http://www.neowsapp.com/rest/v1/neo/3787624?api_key=iIulBulltgU6a56xZRHN4H3l9WmuAYTsLGpBGhQ2"
    },
    "id": "3787624",
    "neo_reference_id": "3787624",
    "name": "(2017 US2)",
    "designation": "2017 US2",
    "nasa_jpl_url": "http://ssd.jpl.nasa.gov/sbdb.cgi?sstr=3787624",
    "absolute_magnitude_h": 26.1,
    "estimated_diameter": {
        "kilometers": {
            "estimated_diameter_min": 0.0160160338,
            "estimated_diameter_max": 0.0358129403
        },
        "meters": {
            "estimated_diameter_min": 16.0160337979,
            "estimated_diameter_max": 35.8129403019
        },
        "miles": {
            "estimated_diameter_min": 0.0099518989,
            "estimated_diameter_max": 0.0222531225
        },
        "feet": {
            "estimated_diameter_min": 52.5460443254,
            "estimated_diameter_max": 117.4965270602
        }
    },
    "is_potentially_hazardous_asteroid": false,
    "close_approach_data": [
        {
            "close_approach_date": "2017-10-09",
            "close_approach_date_full": "2017-Oct-09 07:04",
            "epoch_date_close_approach": 1507532640000,
            "relative_velocity": {
                "kilometers_per_second": "7.9910198455",
                "kilometers_per_hour": "28767.671443635",
                "miles_per_hour": "17875.1122922964"
            },
            "miss_distance": {
                "astronomical": "0.0066542122",
                "lunar": "2.5884885458",
                "kilometers": "995455.971648014",
                "miles": "618547.6583460332"
            },
            "orbiting_body": "Earth"
        },
        {
            "close_approach_date": "2017-10-09",
            "close_approach_date_full": "2017-Oct-09 20:30",
            "epoch_date_close_approach": 1507581000000,
            "relative_velocity": {
                "kilometers_per_second": "8.2601739752",
                "kilometers_per_hour": "29736.6263106383",
                "miles_per_hour": "18477.1831650741"
            },
            "miss_distance": {
                "astronomical": "0.0066127403",
                "lunar": "2.5723559767",
                "kilometers": "989251.863743161",
                "miles": "614692.6044551818"
            },
            "orbiting_body": "Moon"
        },
        {
            "close_approach_date": "2112-07-19",
            "close_approach_date_full": "2112-Jul-19 05:02",
            "epoch_date_close_approach": 4498347720000,
            "relative_velocity": {
                "kilometers_per_second": "12.9105878252",
                "kilometers_per_hour": "46478.1161707859",
                "miles_per_hour": "28879.6939062308"
            },
            "miss_distance": {
                "astronomical": "0.15779418",
                "lunar": "61.38193602",
                "kilometers": "23605673.2263966",
                "miles": "14667885.18400908"
            },
            "orbiting_body": "Earth"
        }
    ],
    "orbital_data": {
        "orbit_id": "1",
        "orbit_determination_date": "2017-10-22 08:12:05",
        "first_observation_date": "2017-10-20",
        "last_observation_date": "2017-10-22",
        "data_arc_in_days": 2,
        "observations_used": 24,
        "orbit_uncertainty": "9",
        "minimum_orbit_intersection": ".00637318",
        "jupiter_tisserand_invariant": "4.006",
        "epoch_osculation": "2458047.5",
        "eccentricity": ".450851621356148",
        "semi_major_axis": "1.751809247520778",
        "inclination": ".9783491606699903",
        "ascending_node_longitude": "218.286166097177",
        "orbital_period": "846.8932057841084",
        "perihelion_distance": ".9620032079693418",
        "perihelion_argument": "129.8451953018314",
        "aphelion_distance": "2.541615287072215",
        "perihelion_time": "2458013.069613655910",
        "mean_anomaly": "14.63577579701607",
        "mean_motion": ".4250831126537244",
        "equinox": "J2000",
        "orbit_class": {
            "orbit_class_type": "APO",
            "orbit_class_description": "Near-Earth asteroid orbits which cross the Earth’s orbit similar to that of 1862 Apollo",
            "orbit_class_range": "a (semi-major axis) > 1.0 AU; q (perihelion) < 1.017 AU"
        }
    },
    "is_sentry_object": false
}